[{"OBJECT_NAME":"MESON-1","OBJECT_ID":"2024-043AK","EPOCH":"2026-03-09T21:36:16.481664","MEAN_MOTION":15.29893494,"ECCENTRICITY":0.00095452,"INCLINATION":97.5469,"RA_OF_ASC_NODE":205.2839,"ARG_OF_PERICENTER":227.1432,"MEAN_ANOMALY":132.9007,"EPHEMERIS_TYPE":0,"CLASSIFICATION_TYPE":"U","NORAD_CAT_ID":59131,"ELEMENT_SET_NO":999,"REV_AT_EPOCH":11189,"BSTAR":0.0002974823,"MEAN_MOTION_DOT":8.544e-5,"MEAN_MOTION_DDOT":0},{"OBJECT_NAME":"STARLINK-35614","OBJECT_ID":"2025-240U","EPOCH":"2026-03-09T08:34:31.297152","MEAN_MOTION":15.30198884,"ECCENTRICITY":0.00013363,"INCLINATION":53.1592,"RA_OF_ASC_NODE":64.6241,"ARG_OF_PERICENTER":89.4676,"MEAN_ANOMALY":270.6478,"EPHEMERIS_TYPE":0,"CLASSIFICATION_TYPE":"U","NORAD_CAT_ID":66164,"ELEMENT_SET_NO":999,"REV_AT_EPOCH":2193,"BSTAR":0.00057529529,"MEAN_MOTION_DOT":0.00016717,"MEAN_MOTION_DDOT":0}]
